BEIDOU 3 (C01)          
1 36287U 10001A   20336.83606227 -.00000261  00000-0  00000-0 0  9996
2 36287   1.6034  36.9118 0003900 128.4680 347.1719  1.00269429 39884
BEIDOU 5 (C06)          
1 36828U 10036A   20336.82403916  .00000008  00000-0  00000-0 0  9992
2 36828  54.1635 181.4257 0100219 233.7192  71.9052  1.00263991 37927
BEIDOU 6 (C04)          
1 37210U 10057A   20336.83990065 -.00000092  00000-0  00000-0 0  9992
2 37210   0.8079  45.0308 0007050 184.4856 304.0025  1.00271305 36997
BEIDOU 7 (C07)          
1 37256U 10068A   20336.89475226 -.00000217  00000-0  00000-0 0  9996
2 37256  51.2048 296.3508 0080875 215.6573 359.3490  1.00258176 36513
BEIDOU 8 (C08)          
1 37384U 11013A   20336.63174242 -.00000204  00000-0  00000-0 0  9991
2 37384  59.5062  59.9048 0052973 204.4324 151.0592  1.00258827 35378
BEIDOU 9 (C09)          
1 37763U 11038A   20336.56368616  .00000018  00000-0  00000-0 0  9993
2 37763  54.4460 183.8389 0072480 223.2808 321.0038  1.00259700 34353
BEIDOU 10 (C10)         
1 37948U 11073A   20336.96243899 -.00000147  00000-0  00000-0 0  9990
2 37948  51.3010 295.9516 0070456 217.2846 358.3069  1.00258263 33111
BEIDOU 11 (C05)         
1 38091U 12008A   20336.91577006  .00000076  00000-0  00000-0 0  9994
2 38091   1.8322  70.5517 0003544 222.1547 166.9071  1.00271958 32191
BEIDOU 12 (C11)         
1 38250U 12018A   20336.58253850 -.00000071  00000-0  00000-0 0  9999
2 38250  56.7517  12.1489 0024782 244.2411 226.0725  1.86234225 58603
BEIDOU 13 (C12)         
1 38251U 12018B   20336.81090126 -.00000071  00000-0  00000-0 0  9991
2 38251  56.6748  11.5034 0015709 245.9388  62.0982  1.86232524 58601
BEIDOU 15 (C14)         
1 38775U 12050B   20336.59180256  .00000054  00000-0  00000-0 0  9997
2 38775  55.1214 130.6556 0012316 325.3474  32.9794  1.86232259 55975
BEIDOU 16 (C02)         
1 38953U 12059A   20336.94354970 -.00000156  00000-0  00000-0 0  9993
2 38953   1.4985  84.6331 0008015 252.3328 157.9905  1.00275017 29764
BEIDOU 17 (C31)         
1 40549U 15019A   20336.70581480 -.00000151  00000-0  00000-0 0  9993
2 40549  52.8084 319.2742 0039783 194.8936 263.1807  1.00251109 20793
BEIDOU 18 (C57)         
1 40748U 15037A   20336.64200793 -.00000073  00000-0  00000-0 0  9995
2 40748  55.9408  10.7158 0002587 310.2449 154.5299  1.86233386 36434
BEIDOU 19 (C58)         
1 40749U 15037B   20336.50096512 -.00000073  00000-0  00000+0 0  9992
2 40749  55.9474  10.7061 0005812 284.9597 222.2172  1.86232079 36426
BEIDOU 20 (C18)         
1 40938U 15053A   20336.96010278 -.00000143  00000-0  00000-0 0  9994
2 40938  52.3695 282.3183 0047381 192.6177  38.2578  1.00281008 19079
BEIDOU IGSO-6 (C13)     
1 41434U 16021A   20336.69910400 -.00000159  00000-0  00000-0 0  9995
2 41434  57.2779  58.7386 0042941 206.8063 151.8787  1.00266738 17184
BEIDOU-2 G7 (C03)       
1 41586U 16037A   20336.90192550 -.00000334  00000-0  00000-0 0  9997
2 41586   1.8379  68.4215 0007787 354.9443  83.0930  1.00268220 16507
BEIDOU-3 M1 (C19)       
1 43001U 17069A   20336.74582375  .00000055  00000-0  00000-0 0  9996
2 43001  55.2770 130.5757 0007026 288.7118 329.4219  1.86231754 20913
BEIDOU-3 M2 (C20)       
1 43002U 17069B   20336.83283453  .00000055  00000-0  00000-0 0  9992
2 43002  55.2804 130.6095 0006125 320.5878  39.5621  1.86231439 20911
BEIDOU-3 M3 (C27)       
1 43107U 18003A   20336.70141318 -.00000074  00000-0  00000-0 0  9998
2 43107  55.3807  11.8811 0003084  36.3244  41.5819  1.86232467 19672
BEIDOU-3 M4 (C28)       
1 43108U 18003B   20336.76812793 -.00000074  00000-0  00000-0 0  9997
2 43108  55.3735  11.8730 0004665 240.3300 287.4843  1.86232607 19673
BEIDOU-3 M5 (C21)       
1 43207U 18018A   20336.42829919  .00000054  00000-0  00000-0 0  9991
2 43207  55.2377 130.7208 0004564 355.4842   4.4921  1.86231695 19054
BEIDOU-3 M6 (C22)       
1 43208U 18018B   20336.49507067  .00000054  00000-0  00000-0 0  9996
2 43208  55.2373 130.7235 0005452 304.6995  55.2293  1.86231725 19053
BEIDOU-3 M7 (C29)       
1 43245U 18029A   20336.46299262 -.00000074  00000-0  00000-0 0  9994
2 43245  55.3194   9.6935 0001453 247.2083 300.9423  1.86232597 18203
BEIDOU-3 M8 (C30)       
1 43246U 18029B   20336.60828341 -.00000074  00000-0  10000-3 0  9991
2 43246  55.3167   9.7179 0003935 323.8152   7.7759  1.86232914 18195
BEIDOU IGSO-7 (C16)     
1 43539U 18057A   20335.88115936 -.00000035  00000-0  00000-0 0  9998
2 43539  55.0463 180.7473 0030865 212.8873 108.9959  1.00274445  8851
BEIDOU-3 M9 (C23)       
1 43581U 18062A   20336.44795779  .00000016  00000-0  00000-0 0  9991
2 43581  54.4869 251.3971 0004888 286.6383 147.1074  1.86231812 15946
BEIDOU-3 M10 (C24)      
1 43582U 18062B   20336.54295830  .00000016  00000-0  00000-0 0  9996
2 43582  54.4874 251.3832 0006140 344.2684 244.3015  1.86232284 15946
BEIDOU-3 M11 (C25)      
1 43602U 18067A   20336.54791454  .00000018  00000-0  00000-0 0  9999
2 43602  54.5614 249.9515 0007318 351.6086 282.8888  1.86231422 15431
BEIDOU-3 M12 (C26)      
1 43603U 18067B   20336.61911223  .00000019  00000-0  00000-0 0  9997
2 43603  54.5573 249.9159 0004722 340.1387 252.5989  1.86231406 15453
BEIDOU-3 M13 (C32)      
1 43622U 18072A   20336.76601169  .00000054  00000-0  00000-0 0  9994
2 43622  55.1994 130.2841 0003805 284.1855  77.4726  1.86231671 14979
BEIDOU-3 M14 (C33)      
1 43623U 18072B   20336.64087310  .00000054  00000-0  00000-0 0  9998
2 43623  55.2022 130.2810 0002805 335.4688  32.5233  1.86231699 14977
BEIDOU-3 M15 (C34)      
1 43647U 18078A   20336.74317604 -.00000074  00000-0  10000-3 0  9990
2 43647  55.2128   9.8902 0006003 336.7944 354.9189  1.86232798 14473
BEIDOU-3 M16 (C35)      
1 43648U 18078B   20336.58223610 -.00000074  00000-0  10000-3 0  9996
2 43648  55.2077   9.9017 0003776 339.5164 153.0931  1.86232330 14491
BEIDOU-3 G1 (C59)       
1 43683U 18085A   20336.90777032 -.00000256  00000-0  00000-0 0  9999
2 43683   1.4154 246.2265 0004605   2.0544 289.8392  1.00272684  7770
BEIDOU-3 M17 (C36)      
1 43706U 18093A   20336.89023902  .00000018  00000-0  00000-0 0  9997
2 43706  54.5678 251.2274 0010411 274.5823 320.6557  1.86231822 13845
BEIDOU-3 M18 (C37)      
1 43707U 18093B   20336.75567591  .00000018  00000-0  00000-0 0  9990
2 43707  54.5670 251.2206 0009462 296.6835 299.0084  1.86232082 13848
BEIDOU-3 IGSO-1 (C38)   
1 44204U 19023A   20336.61282777 -.00000218  00000-0  00000-0 0  9995
2 44204  55.7364  59.0812 0018222 196.5815 147.0748  1.00299220  6069
BEIDOU-2 G8             
1 44231U 19027A   20336.83684740 -.00000226  00000-0  00000-0 0  9998
2 44231   0.6143 305.3658 0008686 274.2839 297.2064  1.00277512  5799
BEIDOU-3 IGSO-2 (C39)   
1 44337U 19035A   20336.50813285 -.00000025  00000-0  00000-0 0  9993
2 44337  55.0675 176.7836 0016676 183.9715 359.0051  1.00290227  5404
BEIDOU-3 M23 (C45)      
1 44542U 19061A   20335.73298097  .00000011  00000-0  10000-3 0  9990
2 44542  54.7925 251.2975 0009443 324.2994 259.3836  1.86231543  8082
BEIDOU-3 M24 (C46)      
1 44543U 19061B   20336.48042862  .00000017  00000-0  10000-3 0  9997
2 44543  54.7907 251.2421 0006617 318.9779 316.4297  1.86232003  8101
BEIDOU-3 IGSO-3         
1 44709U 19073A   20336.84493990 -.00000176  00000-0  00000-0 0  9999
2 44709  58.1490 302.1877 0021306 198.1610 342.8270  1.00282306  4168
BEIDOU-3 M21            
1 44793U 19078A   20336.31372662 -.00000076  00000-0  10000-3 0  9994
2 44793  55.0620   9.9933 0005651 342.5544  15.9222  1.86232408  6959
BEIDOU-3 M22            
1 44794U 19078B   20335.37132672 -.00000079  00000-0  10000-3 0  9998
2 44794  55.0342  10.0289 0003933 332.2109  25.0376  1.86233262  6931
BEIDOU-3 M19            
1 44864U 19090A   20336.71162275  .00000055  00000-0  00000-0 0  9990
2 44864  55.1364 130.5277 0013454 260.2644 110.2426  1.86231811  6551
BEIDOU-3 M20            
1 44865U 19090B   20336.56533368  .00000054  00000-0  00000-0 0  9998
2 44865  55.1372 130.5625 0012085 278.6594  83.7018  1.86231811  6533
BEIDOU-3 G2             
1 45344U 20017A   20336.86564737 -.00000122  00000-0  00000-0 0  9996
2 45344   2.7064 331.6054 0001459 278.2497 213.0201  1.00271711  2978
BEIDOU-3 G3             
1 45807U 20040A   20336.90183826 -.00000332  00000-0  00000-0 0  9990
2 45807   2.7402 298.5130 0008721   3.1761 204.7198  1.00268035  1798
